{"type": "FeatureCollection", "features": [ {"type": "Feature", "properties": {"norad_id": 33905, "name": "COSMOS 2251 DEB", "group": "cosmos-2251-debris", "lat": 49.39322355342982, "lon": 101.34497999964569, "alt_km": 748.4543686359493, "timestamp": "2025-12-21T03:56:51.225861+00:00", "meta": {"OBJECT_NAME": "COSMOS 2251 DEB", "OBJECT_ID": "1993-036DJ", "EPOCH": "2025-12-20T07:50:49.513344", "MEAN_MOTION": 14.35410087, "ECCENTRICITY": 0.00583732, "INCLINATION": 73.8864, "RA_OF_ASC_NODE": 302.6005, "ARG_OF_PERICENTER": 190.4974, "MEAN_ANOMALY": 291.6634, "EPHEMERIS_TYPE": 0, "CLASSIFICATION_TYPE": "U", "NORAD_CAT_ID": 33905, "ELEMENT_SET_NO": 999, "REV_AT_EPOCH": 87796, "BSTAR": 0.00041571257, "MEAN_MOTION_DOT": 1.19e-05, "MEAN_MOTION_DDOT": 0}, "tle": {"line1": "1 33905U 93036DJ  25354.32696196  .00001190  00000+0  41571-3 0  9993", "line2": "2 33905  73.8864 302.6005 0058373 190.4974 291.6634 14.35410087877965"}}, "geometry": {"type": "Point", "coordinates": [101.34497999964569, 49.39322355342982]}}, {"type": "Feature", "properties": {"norad_id": 33906, "name": "COSMOS 2251 DEB", "group": "cosmos-2251-debris", "lat": -45.511566416410304, "lon": -71.48575052729, "alt_km": 684.2685143839153, "timestamp": "2025-12-21T03:56:51.225870+00:00", "meta": {"OBJECT_NAME": "COSMOS 2251 DEB", "OBJECT_ID": "1993-036DK", "EPOCH": "2025-12-20T20:02:37.818816", "MEAN_MOTION": 14.57214229, "ECCENTRICITY": 0.0036908, "INCLINATION": 74.0303, "RA_OF_ASC_NODE": 306.0889, "ARG_OF_PERICENTER": 334.5785, "MEAN_ANOMALY": 50.8469, "EPHEMERIS_TYPE": 0, "CLASSIFICATION_TYPE": "U", "NORAD_CAT_ID": 33906, "ELEMENT_SET_NO": 999, "REV_AT_EPOCH": 88126, "BSTAR": 0.0011945, "MEAN_MOTION_DOT": 5.42e-05, "MEAN_MOTION_DDOT": 0}, "tle": {"line1": "1 33906U 93036DK  25354.83515994  .00005420  00000+0  11945-2 0  9997", "line2": "2 33906  74.0303 306.0889 0036908 334.5785  50.8469 14.57214229881269"}}, "geometry": {"type": "Point", "coordinates": [-71.48575052729, -45.511566416410304]}}, {"type": "Feature", "properties": {"norad_id": 33907, "name": "COSMOS 2251 DEB", "group": "cosmos-2251-debris", "lat": -18.680162128475082, "lon": -156.10861796817068, "alt_km": 843.3248558463692, "timestamp": "2025-12-21T03:56:51.225879+00:00", "meta": {"OBJECT_NAME": "COSMOS 2251 DEB", "OBJECT_ID": "1993-036DL", "EPOCH": "2025-12-20T08:39:03.581568", "MEAN_MOTION": 14.30568878, "ECCENTRICITY": 0.01118938, "INCLINATION": 74.0693, "RA_OF_ASC_NODE": 19.8097, "ARG_OF_PERICENTER": 73.0053, "MEAN_ANOMALY": 306.2172, "EPHEMERIS_TYPE": 0, "CLASSIFICATION_TYPE": "U", "NORAD_CAT_ID": 33907, "ELEMENT_SET_NO": 999, "REV_AT_EPOCH": 86689, "BSTAR": 0.0011890274, "MEAN_MOTION_DOT": 3.297e-05, "MEAN_MOTION_DDOT": 0}, "tle": {"line1": "1 33907U 93036DL  25354.36045812  .00003297  00000+0  11890-2 0  9992", "line2": "2 33907  74.0693  19.8097 0111893  73.0053 306.2172 14.30568878866896"}}, "geometry": {"type": "Point", "coordinates": [-156.10861796817068, -18.680162128475082]}}, {"type": "Feature", "properties": {"norad_id": 33908, "name": "COSMOS 2251 DEB", "group": "cosmos-2251-debris", "lat": -62.77826432290605, "lon": 45.13463853168944, "alt_km": 741.8210076249488, "timestamp": "2025-12-21T03:56:51.225888+00:00", "meta": {"OBJECT_NAME": "COSMOS 2251 DEB", "OBJECT_ID": "1993-036DM", "EPOCH": "2025-12-20T19:57:01.536192", "MEAN_MOTION": 14.07396598, "ECCENTRICITY": 0.0222508, "INCLINATION": 73.8363, "RA_OF_ASC_NODE": 191.407, "ARG_OF_PERICENTER": 213.4269, "MEAN_ANOMALY": 145.2659, "EPHEMERIS_TYPE": 0, "CLASSIFICATION_TYPE": "U", "NORAD_CAT_ID": 33908, "ELEMENT_SET_NO": 999, "REV_AT_EPOCH": 85587, "BSTAR": 0.0013495, "MEAN_MOTION_DOT": 2.819e-05, "MEAN_MOTION_DDOT": 0}, "tle": {"line1": "1 33908U 93036DM  25354.83126778  .00002819  00000+0  13495-2 0  9998", "line2": "2 33908  73.8363 191.4070 0222508 213.4269 145.2659 14.07396598855870"}}, "geometry": {"type": "Point", "coordinates": [45.13463853168944, -62.77826432290605]}}, {"type": "Feature", "properties": {"norad_id": 33911, "name": "COSMOS 2251 DEB", "group": "cosmos-2251-debris", "lat": -72.5884291516489, "lon": 30.890477337472216, "alt_km": 661.8295695570177, "timestamp": "2025-12-21T03:56:51.225897+00:00", "meta": {"OBJECT_NAME": "COSMOS 2251 DEB", "OBJECT_ID": "1993-036DQ", "EPOCH": "2025-12-20T05:51:39.580704", "MEAN_MOTION": 14.75026085, "ECCENTRICITY": 0.00140548, "INCLINATION": 74.0899, "RA_OF_ASC_NODE": 147.2383, "ARG_OF_PERICENTER": 82.4401, "MEAN_ANOMALY": 335.6844, "EPHEMERIS_TYPE": 0, "CLASSIFICATION_TYPE": "U", "NORAD_CAT_ID": 33911, "ELEMENT_SET_NO": 999, "REV_AT_EPOCH": 88755, "BSTAR": 0.0013640753, "MEAN_MOTION_DOT": 9.177e-05, "MEAN_MOTION_DDOT": 0}, "tle": {"line1": "1 33911U 93036DQ  25354.24420811  .00009177  00000+0  13641-2 0  9999", "line2": "2 33911  74.0899 147.2383 0014054  82.4401 335.6844 14.75026085887551"}}, "geometry": {"type": "Point", "coordinates": [30.890477337472216, -72.5884291516489]}}, {"type": "Feature", "properties": {"norad_id": 33912, "name": "COSMOS 2251 DEB", "group": "cosmos-2251-debris", "lat": 8.048414791193997, "lon": -8.465642537739194, "alt_km": 719.5958948332054, "timestamp": "2025-12-21T03:56:51.225906+00:00", "meta": {"OBJECT_NAME": "COSMOS 2251 DEB", "OBJECT_ID": "1993-036DR", "EPOCH": "2025-12-20T14:13:38.953344", "MEAN_MOTION": 14.51934583, "ECCENTRICITY": 0.0011342, "INCLINATION": 74.0325, "RA_OF_ASC_NODE": 174.9313, "ARG_OF_PERICENTER": 253.8208, "MEAN_ANOMALY": 170.9393, "EPHEMERIS_TYPE": 0, "CLASSIFICATION_TYPE": "U", "NORAD_CAT_ID": 33912, "ELEMENT_SET_NO": 999, "REV_AT_EPOCH": 88547, "BSTAR": 0.00048633, "MEAN_MOTION_DOT": 1.936e-05, "MEAN_MOTION_DDOT": 0}, "tle": {"line1": "1 33912U 93036DR  25354.59281196  .00001936  00000+0  48633-3 0  9994", "line2": "2 33912  74.0325 174.9313 0011342 253.8208 170.9393 14.51934583885475"}}, "geometry": {"type": "Point", "coordinates": [-8.465642537739194, 8.048414791193997]}}, {"type": "Feature", "properties": {"norad_id": 33913, "name": "COSMOS 2251 DEB", "group": "cosmos-2251-debris", "lat": 25.4525511813709, "lon": -19.97231484147345, "alt_km": 743.9215290215425, "timestamp": "2025-12-21T03:56:51.225916+00:00", "meta": {"OBJECT_NAME": "COSMOS 2251 DEB", "OBJECT_ID": "1993-036DS", "EPOCH": "2025-12-20T14:16:18.139296", "MEAN_MOTION": 14.48514433, "ECCENTRICITY": 0.0048159, "INCLINATION": 74.032, "RA_OF_ASC_NODE": 168.9277, "ARG_OF_PERICENTER": 270.0114, "MEAN_ANOMALY": 153.5906, "EPHEMERIS_TYPE": 0, "CLASSIFICATION_TYPE": "U", "NORAD_CAT_ID": 33913, "ELEMENT_SET_NO": 999, "REV_AT_EPOCH": 88571, "BSTAR": 0.00037336, "MEAN_MOTION_DOT": 1.394e-05, "MEAN_MOTION_DDOT": 0}, "tle": {"line1": "1 33913U 93036DS  25354.59465439  .00001394  00000+0  37336-3 0  9995", "line2": "2 33913  74.0320 168.9277 0048159 270.0114 153.5906 14.48514433885714"}}, "geometry": {"type": "Point", "coordinates": [-19.97231484147345, 25.4525511813709]}}, {"type": "Feature", "properties": {"norad_id": 33914, "name": "COSMOS 2251 DEB", "group": "cosmos-2251-debris", "lat": -38.761307274550234, "lon": -12.026773256442604, "alt_km": 1172.499761891555, "timestamp": "2025-12-21T03:56:51.225925+00:00", "meta": {"OBJECT_NAME": "COSMOS 2251 DEB", "OBJECT_ID": "1993-036DT", "EPOCH": "2025-12-20T18:27:36.984384", "MEAN_MOTION": 13.7198905, "ECCENTRICITY": 0.0300836, "INCLINATION": 74.0911, "RA_OF_ASC_NODE": 1.862, "ARG_OF_PERICENTER": 102.9535, "MEAN_ANOMALY": 66.9153, "EPHEMERIS_TYPE": 0, "CLASSIFICATION_TYPE": "U", "NORAD_CAT_ID": 33914, "ELEMENT_SET_NO": 999, "REV_AT_EPOCH": 84191, "BSTAR": 0.00017031, "MEAN_MOTION_DOT": 1.94e-06, "MEAN_MOTION_DDOT": 0}, "tle": {"line1": "1 33914U 93036DT  25354.76917806  .00000194  00000+0  17031-3 0  9992", "line2": "2 33914  74.0911   1.8620 0300836 102.9535  66.9153 13.71989050841912"}}, "geometry": {"type": "Point", "coordinates": [-12.026773256442604, -38.761307274550234]}}, {"type": "Feature", "properties": {"norad_id": 33915, "name": "COSMOS 2251 DEB", "group": "cosmos-2251-debris", "lat": -15.999978287155395, "lon": -156.62665723077149, "alt_km": 775.2705582995968, "timestamp": "2025-12-21T03:56:51.225935+00:00", "meta": {"OBJECT_NAME": "COSMOS 2251 DEB", "OBJECT_ID": "1993-036DU", "EPOCH": "2025-12-20T19:29:43.120032", "MEAN_MOTION": 14.35099184, "ECCENTRICITY": 0.0104104, "INCLINATION": 74.0433, "RA_OF_ASC_NODE": 19.3126, "ARG_OF_PERICENTER": 109.6871, "MEAN_ANOMALY": 66.9266, "EPHEMERIS_TYPE": 0, "CLASSIFICATION_TYPE": "U", "NORAD_CAT_ID": 33915, "ELEMENT_SET_NO": 999, "REV_AT_EPOCH": 87873, "BSTAR": 0.00023146, "MEAN_MOTION_DOT": 6.76e-06, "MEAN_MOTION_DDOT": 0}, "tle": {"line1": "1 33915U 93036DU  25354.81230463  .00000676  00000+0  23146-3 0  9995", "line2": "2 33915  74.0433  19.3126 0104104 109.6871  66.9266 14.35099184878730"}}, "geometry": {"type": "Point", "coordinates": [-156.62665723077149, -15.999978287155395]}}, {"type": "Feature", "properties": {"norad_id": 33916, "name": "COSMOS 2251 DEB", "group": "cosmos-2251-debris", "lat": 54.72546332095235, "lon": -177.0959768097701, "alt_km": 930.6666356708356, "timestamp": "2025-12-21T03:56:51.225944+00:00", "meta": {"OBJECT_NAME": "COSMOS 2251 DEB", "OBJECT_ID": "1993-036DV", "EPOCH": "2025-12-20T12:08:42.300096", "MEAN_MOTION": 13.6862179, "ECCENTRICITY": 0.03249982, "INCLINATION": 74.0522, "RA_OF_ASC_NODE": 27.8276, "ARG_OF_PERICENTER": 198.3165, "MEAN_ANOMALY": 284.1775, "EPHEMERIS_TYPE": 0, "CLASSIFICATION_TYPE": "U", "NORAD_CAT_ID": 33916, "ELEMENT_SET_NO": 999, "REV_AT_EPOCH": 83997, "BSTAR": 0.00025936794, "MEAN_MOTION_DOT": 3e-06, "MEAN_MOTION_DDOT": 0}, "tle": {"line1": "1 33916U 93036DV  25354.50604514  .00000300  00000+0  25937-3 0  9998", "line2": "2 33916  74.0522  27.8276 0324998 198.3165 284.1775 13.68621790839977"}}, "geometry": {"type": "Point", "coordinates": [-177.0959768097701, 54.72546332095235]}}]}